EUTELSAT QUANTUM        
1 49056U 21069B   25285.91433802  .00000115  00000+0  00000+0 0  9999
2 49056   0.0060  99.2383 0002789 128.6285 170.7504  1.00269862 15446
EUTELSAT KONNECT VHTS   
1 53765U 22110A   25285.70312740  .00000007  00000+0  00000+0 0  9993
2 53765   0.0573  97.5828 0003125  91.6069  88.1520  1.00271708  4345
EUTELSAT HOTBIRD 13F    
1 54048U 22134A   25285.84789747  .00000076  00000+0  00000+0 0  9990
2 54048   0.0579 281.4433 0001936  73.2618 345.2186  1.00271665 10890
EUTELSAT HOTBIRD 13G    
1 54225U 22146A   25285.91924028  .00000076  00000+0  00000+0 0  9991
2 54225   0.0511 236.3192 0002079 305.3987 183.9685  1.00272649  4988
EUTELSAT 10B            
1 54259U 22157A   25285.91863361  .00000057  00000+0  00000+0 0  9991
2 54259   0.0581  95.3364 0001849  46.2687 220.8314  1.00271686 10547
EUTELSAT 36D            
1 59346U 24059A   25285.92374697  .00000145  00000+0  00000+0 0  9994
2 59346   0.0134 239.5905 0000099  42.9927 107.5594  1.00269564  5662
